NORAD_CAT_ID,OBJECT_NAME,OBJECT_TYPE,EPOCH,MEAN_MOTION,ECCENTRICITY,INCLINATION,RA_OF_ASC_NODE,ARG_OF_PERICENTER,MEAN_ANOMALY,BSTAR,MEAN_MOTION_DOT,MEAN_MOTION_DDOT,TLE_LINE0,TLE_LINE1,TLE_LINE2,SEMIMAJOR_AXIS,PERIOD,APOGEE,PERIGEE,DECAYED
53736.0,STARLINK-4652,PAYLOAD,2024-03-14 05:55:01,15.08842351,0.0001248,53.2136,270.9504,85.8813,274.2322,9.8649e-05,1.283e-05,0.0,0 STARLINK-4652,1 53736U 22107AN  24074.24654402  .00001283  00000-0  98649-4 0  9994,2 53736  53.2136 270.9504 0001248  85.8813 274.2322 15.08842351 85069,6917.873,95.437,540.602,538.875,0.0
53736.0,STARLINK-4652,PAYLOAD,2024-03-14 18:38:07,15.08832728,0.0001262,53.2151,268.5693,79.1577,280.9557,-9.6265e-06,-4.41e-06,0.0,0 STARLINK-4652,1 53736U 22107AN  24074.77647015 -.00000441  00000-0 -96265-5 0  9994,2 53736  53.2151 268.5693 0001262  79.1577 280.9557 15.08832728 84517,6917.903,95.438,540.641,538.895,0.0
53736.0,STARLINK-4652,PAYLOAD,2024-03-14 21:48:53,15.08835483,0.0001472,53.2175,267.9755,82.0231,278.0929,2.7136e-05,1.44e-06,0.0,0 STARLINK-4652,1 53736U 22107AN  24074.90894992  .00000144  00000-0  27136-4 0  9995,2 53736  53.2175 267.9755 0001472  82.0231 278.0929 15.08835483 85162,6917.894,95.438,540.778,538.741,0.0
53736.0,STARLINK-4652,PAYLOAD,2024-03-14 23:24:16,15.08835911,0.0001508,53.2175,267.6766,76.8713,283.2448,3.8326e-05,3.22e-06,0.0,0 STARLINK-4652,1 53736U 22107AN  24074.97519001  .00000322  00000-0  38326-4 0  9998,2 53736  53.2175 267.6766 0001508  76.8713 283.2448 15.08835911 85178,6917.893,95.438,540.801,538.715,0.0
53736.0,STARLINK-4652,PAYLOAD,2024-03-16 11:58:09,15.08829902,0.0001247,53.2156,260.8379,86.8637,273.2497,0.0003794,5.754e-05,0.0,0 STARLINK-4652,1 53736U 22107AN  24076.49871666  .00005754  00000-0  37940-3 0  9999,2 53736  53.2156 260.8379 0001247  86.8637 273.2497 15.08829902 84779,6917.911,95.438,540.639,538.914,0.0
53736.0,STARLINK-4652,PAYLOAD,2024-03-16 18:19:41,15.08839805,0.0001245,53.2156,259.6474,102.7106,257.4025,0.0001311,1.799e-05,0.0,0 STARLINK-4652,1 53736U 22107AN  24076.76367114  .00001799  00000-0  13110-3 0  9995,2 53736  53.2156 259.6474 0001245 102.7106 257.4025 15.08839805 84817,6917.881,95.438,540.607,538.885,0.0
53736.0,STARLINK-4652,PAYLOAD,2024-03-17 21:21:14,15.08844292,0.0001292,53.2151,254.5923,103.5918,256.5218,0.00022081,3.228e-05,0.0,0 STARLINK-4652,1 53736U 22107AN  24077.88974950  .00003228  00000-0  22081-3 0  9997,2 53736  53.2151 254.5923 0001292 103.5918 256.5218 15.08844292 85616,6917.867,95.437,540.626,538.838,0.0
53736.0,STARLINK-4652,PAYLOAD,2024-03-18 21:12:01,15.08844296,0.0001358,53.2154,250.1312,110.5587,249.5551,0.00014629,2.041e-05,0.0,0 STARLINK-4652,1 53736U 22107AN  24078.88334888  .00002041  00000-0  14629-3 0  9999,2 53736  53.2154 250.1312 0001358 110.5587 249.5551 15.08844296 85768,6917.867,95.437,540.672,538.793,0.0
53736.0,STARLINK-4652,PAYLOAD,2024-03-19 11:30:29,15.08843602,0.0001668,53.216,247.4543,84.0036,276.1146,9.8563e-05,1.281e-05,0.0,0 STARLINK-4652,1 53736U 22107AN  24079.47951153  .00001281  00000-0  98563-4 0  9990,2 53736  53.2160 247.4543 0001668  84.0036 276.1146 15.08843602 85225,6917.869,95.437,540.888,538.58,0.0
53736.0,STARLINK-4652,PAYLOAD,2024-03-20 11:21:17,15.08835699,0.0001355,53.216,242.9963,95.3931,264.7216,9.8269e-05,1.276e-05,0.0,0 STARLINK-4652,1 53736U 22107AN  24080.47311462  .00001276  00000-0  98269-4 0  9992,2 53736  53.2160 242.9963 0001355  95.3931 264.7216 15.08835699 86008,6917.894,95.438,540.696,538.821,0.0
53736.0,STARLINK-4652,PAYLOAD,2024-03-20 16:07:26,15.08831885,0.0001321,53.2171,242.1031,101.3107,258.8033,5.2446e-05,5.47e-06,0.0,0 STARLINK-4652,1 53736U 22107AN  24080.67183876  .00000547  00000-0  52446-4 0  9997,2 53736  53.2171 242.1031 0001321 101.3107 258.8033 15.08831885 85401,6917.905,95.438,540.684,538.856,0.0
53736.0,STARLINK-4652,PAYLOAD,2024-03-21 14:22:50,15.08838004,0.0001305,53.2171,237.9405,98.1773,261.9367,0.00011134,1.484e-05,0.0,0 STARLINK-4652,1 53736U 22107AN  24081.59919772  .00001484  00000-0  11134-3 0  9990,2 53736  53.2171 237.9405 0001305  98.1773 261.9367 15.08838004 86172,6917.886,95.438,540.654,538.849,0.0
53736.0,STARLINK-4652,PAYLOAD,2024-03-21 17:33:36,15.08841005,0.0001239,53.2171,237.3483,95.0117,265.1016,0.0001442,2.008e-05,0.0,0 STARLINK-4652,1 53736U 22107AN  24081.73167580  .00002008  00000-0  14420-3 0  9992,2 53736  53.2171 237.3483 0001239  95.0117 265.1016 15.08841005 85560,6917.877,95.437,540.599,538.885,0.0
53736.0,STARLINK-4652,PAYLOAD,2024-03-22 14:13:37,15.08838021,0.0001278,53.2176,233.4835,95.3163,264.7975,0.00016752,2.379e-05,0.0,0 STARLINK-4652,1 53736U 22107AN  24082.59279916  .00002379  00000-0  16752-3 0  9995,2 53736  53.2176 233.4835 0001278  95.3163 264.7975 15.08838021 86328,6917.886,95.438,540.636,538.867,0.0
53736.0,STARLINK-4652,PAYLOAD,2024-03-22 18:59:47,15.08840827,0.0001316,53.2163,232.5914,95.9986,264.1156,0.00016265,2.302e-05,0.0,0 STARLINK-4652,1 53736U 22107AN  24082.79151760  .00002302  00000-0  16265-3 0  9998,2 53736  53.2163 232.5914 0001316  95.9986 264.1156 15.08840827 85729,6917.878,95.438,540.653,538.832,0.0
53736.0,STARLINK-4652,PAYLOAD,2024-03-23 17:15:11,15.08841144,0.0001497,53.2169,228.427,93.5575,266.5589,6.3801e-05,7.28e-06,0.0,0 STARLINK-4652,1 53736U 22107AN  24083.71887895  .00000728  00000-0  63801-4 0  9995,2 53736  53.2169 228.4270 0001497  93.5575 266.5589 15.08841144 86496,6917.877,95.437,540.777,538.706,0.0
53736.0,STARLINK-4652,PAYLOAD,2024-03-24 09:09:02,15.08848269,0.0001495,53.2167,225.452,103.8537,256.2621,0.00018633,2.679e-05,0.0,0 STARLINK-4652,1 53736U 22107AN  24084.38127517  .00002679  00000-0  18633-3 0  9996,2 53736  53.2167 225.4520 0001495 103.8537 256.2621 15.08848269 85969,6917.855,95.437,540.754,538.686,0.0
53736.0,STARLINK-4652,PAYLOAD,2024-03-24 13:55:11,15.0884661,0.0001522,53.2169,224.5595,87.1654,272.9513,0.00020337,2.951e-05,0.0,0 STARLINK-4652,1 53736U 22107AN  24084.57999807  .00002951  00000-0  20337-3 0  9993,2 53736  53.2169 224.5595 0001522  87.1654 272.9513 15.08846610 86625,6917.86,95.437,540.778,538.672,0.0
53736.0,STARLINK-4652,PAYLOAD,2024-03-24 18:41:20,15.08852931,0.0001409,53.2164,223.665,95.8188,264.2965,0.00027188,4.043e-05,0.0,0 STARLINK-4652,1 53736U 22107AN  24084.77871409  .00004043  00000-0  27188-3 0  9997,2 53736  53.2164 223.6650 0001409  95.8188 264.2965 15.08852931 86655,6917.841,95.437,540.681,538.731,0.0
53736.0,STARLINK-4652,PAYLOAD,2024-03-25 08:59:49,15.08829429,0.0001311,53.2161,220.9889,104.4759,255.6379,-0.00024198,-4.136e-05,0.0,0 STARLINK-4652,1 53736U 22107AN  24085.37488032 -.00004136  00000-0 -24198-3 0  9993,2 53736  53.2161 220.9889 0001311 104.4759 255.6379 15.08829429 86119,6917.913,95.438,540.685,538.871,0.0
53736.0,STARLINK-4652,PAYLOAD,2024-03-25 15:21:21,15.08838093,0.00013,53.2162,219.8005,102.0058,258.108,-1.1518e-06,-3.06e-06,0.0,0 STARLINK-4652,1 53736U 22107AN  24085.63983778 -.00000306  00000-0 -11518-5 0  9998,2 53736  53.2162 219.8005 0001300 102.0058 258.1080 15.08838093 86159,6917.886,95.438,540.651,538.852,0.0
53736.0,STARLINK-4652,PAYLOAD,2024-03-26 13:36:46,15.08829551,0.0001354,53.2165,215.6333,108.915,251.1989,-0.00012523,-2.28e-05,0.0,0 STARLINK-4652,1 53736U 22107AN  24086.56720609 -.00002280  00000-0 -12523-3 0  9991,2 53736  53.2165 215.6333 0001354 108.9150 251.1989 15.08829551 86292,6917.912,95.438,540.714,538.841,0.0
53736.0,STARLINK-4652,PAYLOAD,2024-03-26 15:12:09,15.08824361,0.0001381,53.2168,215.3381,103.9238,256.1908,-0.00018757,-3.271e-05,0.0,0 STARLINK-4652,1 53736U 22107AN  24086.63344895 -.00003271  00000-0 -18757-3 0  9994,2 53736  53.2168 215.3381 0001381 103.9238 256.1908 15.08824361 86938,6917.928,95.439,540.749,538.838,0.0
53736.0,STARLINK-4652,PAYLOAD,2024-03-27 13:27:33,15.08841759,0.0001258,53.2176,211.1787,99.5793,260.5341,0.00044203,6.754e-05,0.0,0 STARLINK-4652,1 53736U 22107AN  24087.56080731  .00006754  00000-0  44203-3 0  9995,2 53736  53.2176 211.1787 0001258  99.5793 260.5341 15.08841759 86446,6917.875,95.437,540.61,538.87,0.0
53736.0,STARLINK-4652,PAYLOAD,2024-03-27 15:02:56,15.08848544,0.0001276,53.217,210.8837,91.9502,268.1637,0.00053374,8.219e-05,0.0,0 STARLINK-4652,1 53736U 22107AN  24087.62704653  .00008219  00000-0  53374-3 0  9995,2 53736  53.2170 210.8837 0001276  91.9502 268.1637 15.08848544 87088,6917.854,95.437,540.602,538.837,0.0
53736.0,STARLINK-4652,PAYLOAD,2024-03-28 00:35:14,15.08873268,0.0001366,53.2178,209.0993,96.5694,263.5453,0.0010724,0.00016836,0.0,0 STARLINK-4652,1 53736U 22107AN  24088.02447770  .00016836  00000-0  10724-2 0  9999,2 53736  53.2178 209.0993 0001366  96.5694 263.5453 15.08873268 86515,6917.779,95.435,540.589,538.699,0.0
53736.0,STARLINK-4652,PAYLOAD,2024-03-28 11:42:57,15.08837656,0.0001658,53.2168,207.0179,99.311,260.807,0.00063012,9.754e-05,0.0,0 STARLINK-4652,1 53736U 22107AN  24088.48816506  .00009754  00000-0  63012-3 0  9996,2 53736  53.2168 207.0179 0001658  99.3110 260.8070 15.08837656 86589,6917.888,95.438,540.9,538.606,0.0
53736.0,STARLINK-4652,PAYLOAD,2024-03-28 14:53:43,15.08836063,0.0001705,53.217,206.4235,101.4569,258.6615,0.0013228,0.00020825,0.0,0 STARLINK-4652,1 53736U 22107AN  24088.62064558  .00020825  00000-0  13228-2 0  9999,2 53736  53.2170 206.4235 0001705 101.4569 258.6615 15.08836063 87238,6917.892,95.438,540.937,538.578,0.0
53736.0,STARLINK-4652,PAYLOAD,2024-03-29 14:44:30,15.08861562,0.0001465,53.2164,201.9601,82.7994,277.3165,0.001478,0.00023327,0.0,0 STARLINK-4652,1 53736U 22107AN  24089.61424568  .00023327  00000-0  14780-2 0  9994,2 53736  53.2164 201.9601 0001465  82.7994 277.3165 15.08861562 87380,6917.814,95.436,540.693,538.666,0.0
53736.0,STARLINK-4652,PAYLOAD,2024-03-29 17:55:17,15.08863544,0.0001439,53.2164,201.3677,88.0882,272.0275,0.0016236,0.00025663,0.0,0 STARLINK-4652,1 53736U 22107AN  24089.74672523  .00025663  00000-0  16236-2 0  9997,2 53736  53.2164 201.3677 0001439  88.0882 272.0275 15.08863544 86771,6917.808,95.436,540.669,538.678,0.0
